start=new Date('2023-03-24T00:00:00.000Z').valueOf();
sats=[{"RA_OF_ASC_NODE":"202.8679","NORAD_CAT_ID":"55607","FILE":"3868816","APOAPSIS":"541.308","OBJECT_ID":"2023-020AQ","SITE":"AFETR","INCLINATION":"52.9981","MEAN_MOTION_DDOT":"0.0000000000000","ARG_OF_PERICENTER":"83.1930","ELEMENT_SET_NO":"999","GP_ID":"228741603","PERIAPSIS":"539.267","LAUNCH_DATE":"2023-02-12","TLE_LINE2":"2 55607  52.9981 202.8679 0001475  83.1930 221.1371 15.08662725  1307","OBJECT_TYPE":"PAYLOAD","ECCENTRICITY":"0.00014750","REF_FRAME":"TEME","EPOCH":"2023-03-23T22:00:00.999936","COUNTRY_CODE":"US","MEAN_ELEMENT_THEORY":"SGP4","MEAN_ANOMALY":"221.1371","MEAN_MOTION":"15.08662725","CLASSIFICATION_TYPE":"U","DECAY_DATE":null,"BSTAR":"0.07635400000000","OBJECT_NAME":"STARLINK-5700","PERIOD":"95.449","TIME_SYSTEM":"UTC","RCS_SIZE":"LARGE","EPHEMERIS_TYPE":"0","MEAN_MOTION_DOT":"0.01313333","CENTER_NAME":"EARTH","REV_AT_EPOCH":"130","TLE_LINE1":"1 55607U 23020AQ  23082.91667824  .01313333  00000-0  76354-1 0  9991","SEMIMAJOR_AXIS":"6918.422"},{"LAUNCH_DATE":"2023-02-12","ARG_OF_PERICENTER":"83.1930","ELEMENT_SET_NO":"999","GP_ID":"228742354","PERIAPSIS":"539.267","APOAPSIS":"541.308","FILE":"3868816","OBJECT_ID":"2023-020AR","SITE":"AFETR","INCLINATION":"52.9981","MEAN_MOTION_DDOT":"0.0000000000000","NORAD_CAT_ID":"55608","RA_OF_ASC_NODE":"202.8679","COUNTRY_CODE":"US","MEAN_ANOMALY":"221.1371","MEAN_ELEMENT_THEORY":"SGP4","REF_FRAME":"TEME","EPOCH":"2023-03-23T22:00:00.999936","ECCENTRICITY":"0.00014750","TLE_LINE2":"2 55608  52.9981 202.8679 0001475  83.1930 221.1371 15.08662725  1308","OBJECT_TYPE":"PAYLOAD","PERIOD":"95.449","TIME_SYSTEM":"UTC","DECAY_DATE":null,"OBJECT_NAME":"STARLINK-5726","BSTAR":"0.07635400000000","CLASSIFICATION_TYPE":"U","MEAN_MOTION":"15.08662725","TLE_LINE1":"1 55608U 23020AR  23082.91667824  .01313333  00000-0  76354-1 0  9992","SEMIMAJOR_AXIS":"6918.422","REV_AT_EPOCH":"130","CENTER_NAME":"EARTH","RCS_SIZE":"LARGE","EPHEMERIS_TYPE":"0","MEAN_MOTION_DOT":"0.01313333"},{"COUNTRY_CODE":"US","MEAN_ANOMALY":"221.1371","MEAN_ELEMENT_THEORY":"SGP4","REF_FRAME":"TEME","EPOCH":"2023-03-23T22:00:00.999936","ECCENTRICITY":"0.00014750","TLE_LINE2":"2 55609  52.9981 202.8679 0001475  83.1930 221.1371 15.08662725  1309","OBJECT_TYPE":"PAYLOAD","LAUNCH_DATE":"2023-02-12","ARG_OF_PERICENTER":"83.1930","ELEMENT_SET_NO":"999","GP_ID":"228742605","PERIAPSIS":"539.267","FILE":"3868816","OBJECT_ID":"2023-020AS","APOAPSIS":"541.308","SITE":"AFETR","INCLINATION":"52.9981","MEAN_MOTION_DDOT":"0.0000000000000","RA_OF_ASC_NODE":"202.8679","NORAD_CAT_ID":"55609","SEMIMAJOR_AXIS":"6918.422","TLE_LINE1":"1 55609U 23020AS  23082.91667824  .01313333  00000-0  76354-1 0  9993","REV_AT_EPOCH":"130","CENTER_NAME":"EARTH","RCS_SIZE":"LARGE","MEAN_MOTION_DOT":"0.01313333","EPHEMERIS_TYPE":"0","PERIOD":"95.449","TIME_SYSTEM":"UTC","DECAY_DATE":null,"BSTAR":"0.07635400000000","OBJECT_NAME":"STARLINK-5719","CLASSIFICATION_TYPE":"U","MEAN_MOTION":"15.08662725"},{"ECCENTRICITY":"0.00014750","OBJECT_TYPE":"PAYLOAD","TLE_LINE2":"2 55610  52.9981 202.8679 0001475  83.1930 221.1371 15.08662725  1301","COUNTRY_CODE":"US","MEAN_ELEMENT_THEORY":"SGP4","MEAN_ANOMALY":"221.1371","EPOCH":"2023-03-23T22:00:00.999936","REF_FRAME":"TEME","SITE":"AFETR","APOAPSIS":"541.308","FILE":"3868816","OBJECT_ID":"2023-020AT","MEAN_MOTION_DDOT":"0.0000000000000","INCLINATION":"52.9981","NORAD_CAT_ID":"55610","RA_OF_ASC_NODE":"202.8679","LAUNCH_DATE":"2023-02-12","ELEMENT_SET_NO":"999","ARG_OF_PERICENTER":"83.1930","PERIAPSIS":"539.267","GP_ID":"228742834","CENTER_NAME":"EARTH","RCS_SIZE":"LARGE","MEAN_MOTION_DOT":"0.01313333","EPHEMERIS_TYPE":"0","SEMIMAJOR_AXIS":"6918.422","TLE_LINE1":"1 55610U 23020AT  23082.91667824  .01313333  00000-0  76354-1 0  9995","REV_AT_EPOCH":"130","CLASSIFICATION_TYPE":"U","MEAN_MOTION":"15.08662725","PERIOD":"95.449","TIME_SYSTEM":"UTC","BSTAR":"0.07635400000000","OBJECT_NAME":"STARLINK-5722","DECAY_DATE":null},{"REF_FRAME":"TEME","EPOCH":"2023-03-23T22:00:00.999936","MEAN_ELEMENT_THEORY":"SGP4","MEAN_ANOMALY":"221.1371","COUNTRY_CODE":"US","TLE_LINE2":"2 55611  52.9981 202.8679 0001475  83.1930 221.1371 15.08662725  1302","OBJECT_TYPE":"PAYLOAD","ECCENTRICITY":"0.00014750","GP_ID":"228742103","PERIAPSIS":"539.267","ARG_OF_PERICENTER":"83.1930","ELEMENT_SET_NO":"999","LAUNCH_DATE":"2023-02-12","RA_OF_ASC_NODE":"202.8679","NORAD_CAT_ID":"55611","INCLINATION":"52.9981","MEAN_MOTION_DDOT":"0.0000000000000","APOAPSIS":"541.308","FILE":"3868816","OBJECT_ID":"2023-020AU","SITE":"AFETR","REV_AT_EPOCH":"130","SEMIMAJOR_AXIS":"6918.422","TLE_LINE1":"1 55611U 23020AU  23082.91667824  .01313333  00000-0  76354-1 0  9996","MEAN_MOTION_DOT":"0.01313333","EPHEMERIS_TYPE":"0","RCS_SIZE":"LARGE","CENTER_NAME":"EARTH","DECAY_DATE":null,"BSTAR":"0.07635400000000","OBJECT_NAME":"STARLINK-5730","TIME_SYSTEM":"UTC","PERIOD":"95.449","MEAN_MOTION":"15.08662725","CLASSIFICATION_TYPE":"U"},{"MEAN_MOTION_DDOT":"0.0000000000000","INCLINATION":"52.9981","SITE":"AFETR","APOAPSIS":"541.308","FILE":"3868816","OBJECT_ID":"2023-020AV","NORAD_CAT_ID":"55612","RA_OF_ASC_NODE":"202.8679","LAUNCH_DATE":"2023-02-12","PERIAPSIS":"539.267","GP_ID":"228742353","ELEMENT_SET_NO":"999","ARG_OF_PERICENTER":"83.1930","ECCENTRICITY":"0.00014750","OBJECT_TYPE":"PAYLOAD","TLE_LINE2":"2 55612  52.9981 202.8679 0001475  83.1930 221.1371 15.08662725  1303","MEAN_ELEMENT_THEORY":"SGP4","MEAN_ANOMALY":"221.1371","COUNTRY_CODE":"US","EPOCH":"2023-03-23T22:00:00.999936","REF_FRAME":"TEME","CLASSIFICATION_TYPE":"U","MEAN_MOTION":"15.08662725","TIME_SYSTEM":"UTC","PERIOD":"95.449","BSTAR":"0.07635400000000","OBJECT_NAME":"STARLINK-5734","DECAY_DATE":null,"CENTER_NAME":"EARTH","MEAN_MOTION_DOT":"0.01313333","EPHEMERIS_TYPE":"0","RCS_SIZE":"LARGE","TLE_LINE1":"1 55612U 23020AV  23082.91667824  .01313333  00000-0  76354-1 0  9997","SEMIMAJOR_AXIS":"6918.422","REV_AT_EPOCH":"130"},{"ECCENTRICITY":"0.00014750","OBJECT_TYPE":"PAYLOAD","TLE_LINE2":"2 55613  52.9981 202.8679 0001475  83.1930 221.1371 15.08662725  1304","MEAN_ANOMALY":"221.1371","MEAN_ELEMENT_THEORY":"SGP4","COUNTRY_CODE":"US","EPOCH":"2023-03-23T22:00:00.999936","REF_FRAME":"TEME","MEAN_MOTION_DDOT":"0.0000000000000","INCLINATION":"52.9981","SITE":"AFETR","FILE":"3868816","APOAPSIS":"541.308","OBJECT_ID":"2023-020AW","RA_OF_ASC_NODE":"202.8679","NORAD_CAT_ID":"55613","LAUNCH_DATE":"2023-02-12","PERIAPSIS":"539.267","GP_ID":"228743105","ELEMENT_SET_NO":"999","ARG_OF_PERICENTER":"83.1930","CENTER_NAME":"EARTH","MEAN_MOTION_DOT":"0.01313333","EPHEMERIS_TYPE":"0","RCS_SIZE":"LARGE","TLE_LINE1":"1 55613U 23020AW  23082.91667824  .01313333  00000-0  76354-1 0  9998","SEMIMAJOR_AXIS":"6918.422","REV_AT_EPOCH":"130","CLASSIFICATION_TYPE":"U","MEAN_MOTION":"15.08662725","TIME_SYSTEM":"UTC","PERIOD":"95.449","BSTAR":"0.07635400000000","OBJECT_NAME":"STARLINK-5715","DECAY_DATE":null},{"SEMIMAJOR_AXIS":"6733.212","TLE_LINE1":"1 55614U 23020AX  23082.56872175 -.00006968  00000-0 -49772-4 0  9998","REV_AT_EPOCH":"621","CENTER_NAME":"EARTH","RCS_SIZE":"LARGE","EPHEMERIS_TYPE":"0","MEAN_MOTION_DOT":"-0.00006968","PERIOD":"91.642","TIME_SYSTEM":"UTC","DECAY_DATE":null,"BSTAR":"-0.00004977200000","OBJECT_NAME":"STARLINK-5714","CLASSIFICATION_TYPE":"U","MEAN_MOTION":"15.71337072","COUNTRY_CODE":"US","MEAN_ANOMALY":"64.1297","MEAN_ELEMENT_THEORY":"SGP4","REF_FRAME":"TEME","EPOCH":"2023-03-23T13:38:57.559200","ECCENTRICITY":"0.00013660","TLE_LINE2":"2 55614  42.9998 118.1112 0001366 295.9430  64.1297 15.71337072  6211","OBJECT_TYPE":"PAYLOAD","LAUNCH_DATE":"2023-02-12","ARG_OF_PERICENTER":"295.9430","ELEMENT_SET_NO":"999","GP_ID":"228743334","PERIAPSIS":"354.157","FILE":"3868816","OBJECT_ID":"2023-020AX","APOAPSIS":"355.996","SITE":"AFETR","INCLINATION":"42.9998","MEAN_MOTION_DDOT":"0.0000000000000","RA_OF_ASC_NODE":"118.1112","NORAD_CAT_ID":"55614"},{"PERIOD":"95.449","TIME_SYSTEM":"UTC","BSTAR":"0.07635400000000","OBJECT_NAME":"STARLINK-5712","DECAY_DATE":null,"CLASSIFICATION_TYPE":"U","MEAN_MOTION":"15.08662725","SEMIMAJOR_AXIS":"6918.422","TLE_LINE1":"1 55615U 23020AY  23082.91667824  .01313333  00000-0  76354-1 0  9990","REV_AT_EPOCH":"130","CENTER_NAME":"EARTH","RCS_SIZE":"LARGE","MEAN_MOTION_DOT":"0.01313333","EPHEMERIS_TYPE":"0","LAUNCH_DATE":"2023-02-12","ELEMENT_SET_NO":"999","ARG_OF_PERICENTER":"83.1930","PERIAPSIS":"539.267","GP_ID":"228741604","SITE":"AFETR","APOAPSIS":"541.308","FILE":"3868816","OBJECT_ID":"2023-020AY","MEAN_MOTION_DDOT":"0.0000000000000","INCLINATION":"52.9981","NORAD_CAT_ID":"55615","RA_OF_ASC_NODE":"202.8679","COUNTRY_CODE":"US","MEAN_ANOMALY":"221.1371","MEAN_ELEMENT_THEORY":"SGP4","EPOCH":"2023-03-23T22:00:00.999936","REF_FRAME":"TEME","ECCENTRICITY":"0.00014750","OBJECT_TYPE":"PAYLOAD","TLE_LINE2":"2 55615  52.9981 202.8679 0001475  83.1930 221.1371 15.08662725  1306"},{"RCS_SIZE":"LARGE","MEAN_MOTION_DOT":"0.01313333","EPHEMERIS_TYPE":"0","CENTER_NAME":"EARTH","REV_AT_EPOCH":"130","SEMIMAJOR_AXIS":"6918.422","TLE_LINE1":"1 55616U 23020AZ  23082.91667824  .01313333  00000-0  76354-1 0  9991","MEAN_MOTION":"15.08662725","CLASSIFICATION_TYPE":"U","DECAY_DATE":null,"OBJECT_NAME":"STARLINK-5710","BSTAR":"0.07635400000000","PERIOD":"95.449","TIME_SYSTEM":"UTC","TLE_LINE2":"2 55616  52.9981 202.8679 0001475  83.1930 221.1371 15.08662725  1307","OBJECT_TYPE":"PAYLOAD","ECCENTRICITY":"0.00014750","REF_FRAME":"TEME","EPOCH":"2023-03-23T22:00:00.999936","COUNTRY_CODE":"US","MEAN_ELEMENT_THEORY":"SGP4","MEAN_ANOMALY":"221.1371","RA_OF_ASC_NODE":"202.8679","NORAD_CAT_ID":"55616","FILE":"3868816","APOAPSIS":"541.308","OBJECT_ID":"2023-020AZ","SITE":"AFETR","INCLINATION":"52.9981","MEAN_MOTION_DDOT":"0.0000000000000","ARG_OF_PERICENTER":"83.1930","ELEMENT_SET_NO":"999","GP_ID":"228742355","PERIAPSIS":"539.267","LAUNCH_DATE":"2023-02-12"}];
